satname,norad_id,inclination_deg,eccentricity,mean_motion_rev_per_day,perigee_km,apogee_km,l1,l2
STARLINK-1477,45754,53.055,0.0003547,15.0778531,540.5141170790421,545.4239496991286,1 45754U 20038AA  25324.36170569  .00025190  00000+0  16412-2 0  9993,2 45754  53.0550 347.2858 0003547  38.7380 321.3864 15.07785310300007
STARLINK-1478,45755,53.0554,0.0001654,15.06375455,546.1413207554288,548.432250943788,1 45755U 20038AB  25324.45832875 -.00001891  00000+0 -10818-3 0  9998,2 45755  53.0554 346.9768 0001654  98.1606 261.9570 15.06375455300003
STARLINK-1484,45756,53.016,0.0003682,15.65338345,369.78036109160803,374.75135775728904,1 45756U 20038AC  25324.78956579  .00089515  00000+0  87830-3 0  9998,2 45756  53.0160 242.8798 0003682  94.4490 265.6945 15.65338345301490
STARLINK-1493,45759,53.0567,0.0002122,15.06376356,545.814449999396,548.7535986821258,1 45759U 20038AF  25324.38093184  .00002088  00000+0  15913-3 0  9994,2 45759  53.0567 347.3242 0002122 103.4499 256.6727 15.06376356299995
STARLINK-1494,45760,53.054,0.0004738,15.53233796,404.07669480122695,410.5065669718542,1 45760U 20038AG  25324.30252544  .00036387  00000+0  57316-3 0  9997,2 45760  53.0540 326.3407 0004738  65.6462 294.5042 15.53233796300291
STARLINK-1502,45764,53.0548,0.0001538,15.06403754,546.1349356541723,548.2651693315192,1 45764U 20038AL  25324.34774096  .00009260  00000+0  63970-3 0  9999,2 45764  53.0548 347.4734 0001538  79.3576 280.7586 15.06403754300003
STARLINK-1470,45772,53.0477,0.0004808,15.19143962,505.11539328202616,511.7375126984216,1 45772U 20038AU  25324.37582084  .00046678  00000+0  21946-2 0  9995,2 45772  53.0477 318.1381 0004808 348.3446  11.7436 15.19143962300411
STARLINK-1482,45773,53.055,0.0001438,15.06407607,546.1923819069543,548.1841054470369,1 45773U 20038AV  25324.31271789  .00000264  00000+0  36591-4 0  9992,2 45773  53.0550 327.6288 0001438  91.3277 268.7877 15.06407607300270
STARLINK-1496,45780,53.0541,0.0001684,15.06397856,546.051899193556,548.3843588010013,1 45780U 20038BC  25324.27955043  .00004175  00000+0  29905-3 0  9992,2 45780  53.0541 327.7778 0001684  96.7546 263.3635 15.06397856300259
STARLINK-1497,45781,53.0384,0.0006515,15.60163333,382.77725944939175,391.59247384163154,1 45781U 20038BD  25324.91668980  .00138835  00000+0  16523-2 0  9997,2 45781  53.0384 262.8982 0006515  41.1984 357.6305 15.60163333  5927
STARLINK-1510,45784,53.0292,0.0005154,15.79168439,329.3366894392748,336.2543186644525,1 45784U 20038BG  25324.91668980  .00177417  00000+0  95480-3 0  9999,2 45784  53.0292 236.5125 0005154 122.5314 337.4789 15.79168439  5973
STARLINK-1513,45786,53.0552,0.0001367,15.06403694,546.2535427832327,548.1469299836608,1 45786U 20038BJ  25324.24268919 -.00001120  00000+0 -56326-4 0  9991,2 45786  53.0552 327.9460 0001367  85.9024 274.2121 15.06403694300266
STARLINK-1522,46027,53.0525,0.0001659,15.06398691,546.0666538463147,548.3644858289872,1 46027U 20055A   25324.55507568  .00003428  00000+0  24891-3 0  9991,2 46027  53.0525 256.5390 0001659 105.6904 254.4268 15.06398691292436
STARLINK-1523,46028,53.0552,0.0001411,15.0639895,546.2376089033205,548.1919431745191,1 46028U 20055B   25324.10541252  .00012796  00000+0  87636-3 0  9995,2 46028  53.0552 258.5628 0001411  77.2851 282.8296 15.06398950292382
STARLINK-1526,46029,53.0538,0.0001661,15.06393322,546.0817213270075,548.3823289171523,1 46029U 20055C   25324.23071926  .00006514  00000+0  45588-3 0  9997,2 46029  53.0538 257.9953 0001661  79.3125 280.8050 15.06393322292390
STARLINK-1555,46032,53.0537,0.0001815,15.06390295,545.984346363286,548.498258687102,1 46032U 20055F   25324.54770938  .00006096  00000+0  42787-3 0  9997,2 46032  53.0537 256.5722 0001815  82.6352 277.4844 15.06390295292447
STARLINK-1556,46033,53.0541,0.0001551,15.06393221,546.1582098910294,548.3064594586449,1 46033U 20055G   25324.52928161  .00008070  00000+0  56012-3 0  9999,2 46033  53.0541 256.6574 0001551  81.5944 278.5220 15.06393221292410
STARLINK-1557,46034,53.0551,0.0001522,15.06393442,546.1776162270226,548.2856984463169,1 46034U 20055H   25324.53296576  .00000933  00000+0  81519-4 0  9990,2 46034  53.0551 256.6406 0001522  92.8594 267.2569 15.06393442292416
STARLINK-1558,46035,53.0545,0.0001224,15.06424674,546.2882833067251,547.983590121632,1 46035U 20055J   25324.20859008  .00011610  00000+0  79649-3 0  9994,2 46035  53.0545 258.0986 0001224  94.7981 265.3148 15.06424674292390
STARLINK-1560,46036,53.0541,0.0001536,15.06392761,546.1700075731596,548.2974814658764,1 46036U 20055K   25324.52559417  .00007301  00000+0  50860-3 0  9997,2 46036  53.0541 256.6768 0001536  85.5552 274.5612 15.06392761292442
STARLINK-1567,46038,53.0545,0.0001379,15.06391358,546.2830353315821,548.1930537688686,1 46038U 20055M   25324.20491734  .00010070  00000+0  69414-3 0  9993,2 46038  53.0545 258.1134 0001379  83.8898 276.2248 15.06391358292389
STARLINK-1569,46039,53.0556,0.0001486,15.06384133,546.2310744126653,548.2893024570676,1 46039U 20055N   25324.54402718  .00002507  00000+0  18721-3 0  9996,2 46039  53.0556 256.5909 0001486 102.4757 257.6398 15.06384133292433
STARLINK-1582,46043,53.055,0.0002493,15.06412166,545.4477910515516,548.9007512513472,1 46043U 20055S   25324.55138235  .00009404  00000+0  64918-3 0  9994,2 46043  53.0550 256.5584 0002493  81.7929 278.3343 15.06412166292438
STARLINK-1591,46045,53.0559,0.0001508,15.06405447,546.1505236730445,548.2392037631407,1 46045U 20055U   25324.51083925  .00007670  00000+0  53316-3 0  9990,2 46045  53.0559 256.7408 0001508 102.0880 258.0278 15.06405447292419
STARLINK-1524,46047,53.0546,0.0001444,15.06393915,546.2301846248711,548.2302306744405,1 46047U 20055W   25324.79559174  .00004021  00000+0  28871-3 0  9991,2 46047  53.0546 245.4633 0001444  85.4643 274.6511 15.06393915292614
STARLINK-1527,46048,53.0554,0.0001886,15.06399181,545.9079468450218,548.5201892678924,1 46048U 20055X   25324.79190228  .00004412  00000+0  31490-3 0  9998,2 46048  53.0554 245.4793 0001886  86.2881 273.8324 15.06399181292595
STARLINK-1540,46051,53.0551,0.0001694,15.06394347,546.0557266425922,548.4020406039635,1 46051U 20055AA  25324.75873354  .00003536  00000+0  25620-3 0  9990,2 46051  53.0551 245.6282 0001694  80.1786 279.9394 15.06394347292622
STARLINK-1541,46052,53.054,0.0001461,15.06388483,546.2350575280379,548.2586546907933,1 46052U 20055AB  25324.74399161  .00004560  00000+0  32492-3 0  9992,2 46052  53.0540 245.6925 0001461  73.5301 286.5848 15.06388483292583
